QIANFAN-81              
1 63167U 25046J   25361.89413711  .00000225  00000+0  32951-3 0  9992
2 63167  88.9777 318.3040 0016752  76.9795 283.3225 13.51007553 49530
QIANFAN-82              
1 63168U 25046K   25361.92849057  .00000221  00000+0  32286-3 0  9990
2 63168  88.9777 318.3445 0014867  83.7039 276.5805 13.50980541 49525
QIANFAN-83              
1 63169U 25046L   25361.90652766  .00000274  00000+0  33882-3 0  9999
2 63169  88.9777 318.0933 0016194  70.3582 289.9321 13.61980118 49663
QIANFAN-84              
1 63170U 25046M   25361.88211199  .00000207  00000+0  30199-3 0  9993
2 63170  88.9776 318.4818 0017841  80.8901 279.4268 13.50990748 49449
QIANFAN-85              
1 63171U 25046N   25361.87898036  .00000231  00000+0  33934-3 0  9991
2 63171  88.9776 318.3539 0015226  82.7762 277.5120 13.50981444 49517
QIANFAN-86              
1 63172U 25046P   25361.88731130  .00000215  00000+0  31401-3 0  9993
2 63172  88.9778 318.2155 0013088  86.2298 274.0349 13.50981091 49591
QIANFAN-87              
1 63173U 25046Q   25361.93272966  .00000224  00000+0  32810-3 0  9992
2 63173  88.9774 318.3219 0013755  82.2416 278.0296 13.50978697 49536
QIANFAN-88              
1 63174U 25046R   25361.94898790  .00000216  00000+0  31543-3 0  9996
2 63174  88.9777 318.2751 0014119  89.0735 271.2034 13.50985263 49569
